API VERSION: 1.2
API SOURCE: NASA/JPL Horizons API



*******************************************************************************
Ephemeris / API_USER Sat Jul 11 19:36:59 2026 Pasadena, USA      / Horizons    
*******************************************************************************
Target body name: 2060 Chiron (1977 UB)           {source: JPL#171}
Center body name: Earth (399)                     {source: DE441}
Center-site name: GEOCENTRIC
*******************************************************************************
Start time      : A.D. 2025-Jan-01 00:00:00.0000 UT      
Stop  time      : A.D. 2030-Jan-01 00:00:00.0000 UT      
Step-size       : 2880 minutes
*******************************************************************************
Target pole/equ : undefined
Target radii    : 83. km                                                       
Center geodetic : 0.0, 0.0, -6378.137             {E-lon(deg),Lat(deg),Alt(km)}
Center cylindric: 0.0, 0.0, 0.0                   {E-lon(deg),Dxy(km),Dz(km)}
Center pole/equ : ITRF93                          {East-longitude positive}
Center radii    : 6378.137, 6378.137, 6356.752 km {Equator_a, b, pole_c}       
Target primary  : Sun
Vis. interferer : MOON (R_eq= 1737.400) km        {source: DE441}
Rel. light bend : Sun                             {source: DE441}
Rel. lght bnd GM: 1.3271E+11 km^3/s^2                                          
Small-body perts: Yes                             {source: SB441-N16}
Atmos refraction: NO (AIRLESS)
RA format       : DEG
Time format     : CAL 
Calendar mode   : Mixed Julian/Gregorian
EOP file        : eop.260710.p261006                                           
EOP coverage    : DATA-BASED 1962-JAN-20 TO 2026-JUL-10. PREDICTS-> 2026-OCT-05
Units conversion: 1 au= 149597870.700 km, c= 299792.458 km/s, 1 day= 86400.0 s 
Table cut-offs 1: Elevation (-90.0deg=NO ),Airmass (>38.000=NO), Daylight (NO )
Table cut-offs 2: Solar elongation (  0.0,180.0=NO ),Local Hour Angle( 0.0=NO )
Table cut-offs 3: RA/DEC angular rate (     0.0=NO )                           
*******************************************************************************
Initial IAU76/J2000 heliocentric ecliptic osculating elements (au, days, deg.):
  EPOCH=  2457916.5 ! 2017-Jun-12.00 (TDB)         Residual RMS= .19933        
   EC= .3824171374703196   QR= 8.427522999110739   TP= 2450143.7110841358      
   OM= 209.2011323125998   W=  339.6529896907077   IN= 6.94959060447848        
  Equivalent ICRF heliocentric cartesian coordinates (au, au/d):
   X= 1.843374627977423E+01  Y=-1.877818593473934E+00  Z= 5.548833989583914E-01
  VX= 7.316266023833624E-04 VY= 2.960187278972600E-03 VZ= 9.710586201315230E-04
Asteroid physical parameters (km, seconds, rotational period in hours):        
   GM= n.a.                RAD= 83.                ROTPER= 5.918               
   H= 5.54                 G= .150                 B-V= .704                   
                           ALBEDO= .150            STYP= Cb                    
*******************************************************************************
 Date__(UT)__HR:MN        ObsEcLon    ObsEcLat
**********************************************
$$SOE
 2027-May-15 00:00      31.8244718  -0.1071542
 2027-May-17 00:00      31.9388624  -0.1095921
 2027-May-19 00:00      32.0520440  -0.1120379
 2027-May-21 00:00      32.1639538  -0.1144918
 2027-May-23 00:00      32.2744884  -0.1169541
 2027-May-25 00:00      32.3835265  -0.1194256
 2027-May-27 00:00      32.4909546  -0.1219072
 2027-May-29 00:00      32.5966798  -0.1243997
 2027-May-31 00:00      32.7006332  -0.1269042
 2027-Jun-02 00:00      32.8027662  -0.1294216
 2027-Jun-04 00:00      32.9030307  -0.1319524
 2027-Jun-06 00:00      33.0013309  -0.1344971
 2027-Jun-08 00:00      33.0975074  -0.1370552
 2027-Jun-10 00:00      33.1914143  -0.1396262
 2027-Jun-12 00:00      33.2829883  -0.1422092
 2027-Jun-14 00:00      33.3722165  -0.1448036
 2027-Jun-16 00:00      33.4590740  -0.1474091
 2027-Jun-18 00:00      33.5434961  -0.1500258
 2027-Jun-20 00:00      33.6253871  -0.1526543
 2027-Jun-22 00:00      33.7046437  -0.1552950
 2027-Jun-24 00:00      33.7811765  -0.1579487
 2027-Jun-26 00:00      33.8549198  -0.1606162
 2027-Jun-28 00:00      33.9258315  -0.1632982
 2027-Jun-30 00:00      33.9938844  -0.1659954
 2027-Jul-02 00:00      34.0590412  -0.1687080
 2027-Jul-04 00:00      34.1212115  -0.1714360
 2027-Jul-06 00:00      34.1802503  -0.1741787
 2027-Jul-08 00:00      34.2360506  -0.1769349
 2027-Jul-10 00:00      34.2886004  -0.1797035
 2027-Jul-12 00:00      34.3379200  -0.1824837
 2027-Jul-14 00:00      34.3839972  -0.1852752
 2027-Jul-16 00:00      34.4267810  -0.1880778
 2027-Jul-18 00:00      34.4662003  -0.1908919
 2027-Jul-20 00:00      34.5021867  -0.1937178
 2027-Jul-22 00:00      34.5346912  -0.1965560
 2027-Jul-24 00:00      34.5636908  -0.1994071
 2027-Jul-26 00:00      34.5891844  -0.2022712
 2027-Jul-28 00:00      34.6111786  -0.2051487
 2027-Jul-30 00:00      34.6296595  -0.2080395
 2027-Aug-01 00:00      34.6445612  -0.2109427
 2027-Aug-03 00:00      34.6557821  -0.2138573
 2027-Aug-05 00:00      34.6632788  -0.2167817
 2027-Aug-07 00:00      34.6671038  -0.2197142
 2027-Aug-09 00:00      34.6673227  -0.2226538
 2027-Aug-11 00:00      34.6639547  -0.2256000
 2027-Aug-13 00:00      34.6569857  -0.2285523
 2027-Aug-15 00:00      34.6463936  -0.2315107
 2027-Aug-17 00:00      34.6321680  -0.2344753
 2027-Aug-19 00:00      34.6143228  -0.2374463
 2027-Aug-21 00:00      34.5928991  -0.2404236
 2027-Aug-23 00:00      34.5679563  -0.2434073
 2027-Aug-25 00:00      34.5395521  -0.2463969
 2027-Aug-27 00:00      34.5077149  -0.2493917
 2027-Aug-29 00:00      34.4724282  -0.2523905
 2027-Aug-31 00:00      34.4336660  -0.2553915
 2027-Sep-02 00:00      34.3914744  -0.2583928
 2027-Sep-04 00:00      34.3459842  -0.2613925
 2027-Sep-06 00:00      34.2973198  -0.2643891
 2027-Sep-08 00:00      34.2455524  -0.2673819
 2027-Sep-10 00:00      34.1907274  -0.2703703
 2027-Sep-12 00:00      34.1328931  -0.2733540
 2027-Sep-14 00:00      34.0721166  -0.2763329
 2027-Sep-16 00:00      34.0084910  -0.2793067
 2027-Sep-18 00:00      33.9421358  -0.2822752
 2027-Sep-20 00:00      33.8731828  -0.2852380
 2027-Sep-22 00:00      33.8017490  -0.2881942
 2027-Sep-24 00:00      33.7279141  -0.2911428
 2027-Sep-26 00:00      33.6517259  -0.2940821
 2027-Sep-28 00:00      33.5732505  -0.2970100
 2027-Sep-30 00:00      33.4926312  -0.2999245
 2027-Oct-02 00:00      33.4100710  -0.3028237
 2027-Oct-04 00:00      33.3257496  -0.3057063
 2027-Oct-06 00:00      33.2397910  -0.3085716
 2027-Oct-08 00:00      33.1522995  -0.3114192
 2027-Oct-10 00:00      33.0633904  -0.3142488
 2027-Oct-12 00:00      32.9732001  -0.3170603
 2027-Oct-14 00:00      32.8818893  -0.3198537
 2027-Oct-16 00:00      32.7896399  -0.3226287
 2027-Oct-18 00:00      32.6966358  -0.3253849
 2027-Oct-20 00:00      32.6030303  -0.3281217
 2027-Oct-22 00:00      32.5089316  -0.3308377
 2027-Oct-24 00:00      32.4144333  -0.3335315
 2027-Oct-26 00:00      32.3196715  -0.3362014
 2027-Oct-28 00:00      32.2248516  -0.3388456
 2027-Oct-30 00:00      32.1302067  -0.3414629
 2027-Nov-01 00:00      32.0359295  -0.3440527
 2027-Nov-03 00:00      31.9421596  -0.3466148
 2027-Nov-05 00:00      31.8490212  -0.3491495
 2027-Nov-07 00:00      31.7566524  -0.3516570
 2027-Nov-09 00:00      31.6652113  -0.3541380
 2027-Nov-11 00:00      31.5748747  -0.3565927
 2027-Nov-13 00:00      31.4858317  -0.3590216
 2027-Nov-15 00:00      31.3982611  -0.3614247
 2027-Nov-17 00:00      31.3122952  -0.3638019
 2027-Nov-19 00:00      31.2280155  -0.3661523
 2027-Nov-21 00:00      31.1455096  -0.3684749
 2027-Nov-23 00:00      31.0649259  -0.3707688
 2027-Nov-25 00:00      30.9864641  -0.3730331
 2027-Nov-27 00:00      30.9103173  -0.3752677
 2027-Nov-29 00:00      30.8366269  -0.3774728
 2027-Dec-01 00:00      30.7654888  -0.3796491
 2027-Dec-03 00:00      30.6969879  -0.3817979
 2027-Dec-05 00:00      30.6312241  -0.3839202
 2027-Dec-07 00:00      30.5683150  -0.3860172
 2027-Dec-09 00:00      30.5083906  -0.3880902
 2027-Dec-11 00:00      30.4515845  -0.3901400
 2027-Dec-13 00:00      30.3980088  -0.3921674
 2027-Dec-15 00:00      30.3477187  -0.3941726
 2027-Dec-17 00:00      30.3007197  -0.3961556
 2027-Dec-19 00:00      30.2570457  -0.3981157
 2027-Dec-21 00:00      30.2168049  -0.4000528
 2027-Dec-23 00:00      30.1801332  -0.4019668
 2027-Dec-25 00:00      30.1471315  -0.4038585
 2027-Dec-27 00:00      30.1178473  -0.4057290
 2027-Dec-29 00:00      30.0922950  -0.4075796
 2027-Dec-31 00:00      30.0704858  -0.4094122
 2028-Jan-02 00:00      30.0524473  -0.4112284
 2028-Jan-04 00:00      30.0382235  -0.4130299
 2028-Jan-06 00:00      30.0278674  -0.4148182
 2028-Jan-08 00:00      30.0214272  -0.4165946
 2028-Jan-10 00:00      30.0189234  -0.4183602
 2028-Jan-12 00:00      30.0203177  -0.4201154
 2028-Jan-14 00:00      30.0255316  -0.4218604
 2028-Jan-16 00:00      30.0345364  -0.4235948
 2028-Jan-18 00:00      30.0473847  -0.4253188
 2028-Jan-20 00:00      30.0641327  -0.4270329
 2028-Jan-22 00:00      30.0847828  -0.4287383
 2028-Jan-24 00:00      30.1092906  -0.4304363
 2028-Jan-26 00:00      30.1375942  -0.4321287
 2028-Jan-28 00:00      30.1696383  -0.4338173
 2028-Jan-30 00:00      30.2053861  -0.4355041
 2028-Feb-01 00:00      30.2448174  -0.4371905
 2028-Feb-03 00:00      30.2879169  -0.4388782
 2028-Feb-05 00:00      30.3346587  -0.4405685
 2028-Feb-07 00:00      30.3849846  -0.4422621
 2028-Feb-09 00:00      30.4387845  -0.4439595
 2028-Feb-11 00:00      30.4959255  -0.4456608
 2028-Feb-13 00:00      30.5563404  -0.4473656
 2028-Feb-15 00:00      30.6200403  -0.4490742
 2028-Feb-17 00:00      30.6870186  -0.4507870
 2028-Feb-19 00:00      30.7572045  -0.4525054
 2028-Feb-21 00:00      30.8304925  -0.4542308
 2028-Feb-23 00:00      30.9067749  -0.4559648
 2028-Feb-25 00:00      30.9859592  -0.4577092
